{
    "links": {
        "self": "http://www.neowsapp.com/rest/v1/neo/3472193?api_key=iIulBulltgU6a56xZRHN4H3l9WmuAYTsLGpBGhQ2"
    },
    "id": "3472193",
    "neo_reference_id": "3472193",
    "name": "(2009 UJ14)",
    "designation": "2009 UJ14",
    "nasa_jpl_url": "http://ssd.jpl.nasa.gov/sbdb.cgi?sstr=3472193",
    "absolute_magnitude_h": 20.5,
    "estimated_diameter": {
        "kilometers": {
            "estimated_diameter_min": 0.2111324448,
            "estimated_diameter_max": 0.4721064988
        },
        "meters": {
            "estimated_diameter_min": 211.1324447897,
            "estimated_diameter_max": 472.1064988055
        },
        "miles": {
            "estimated_diameter_min": 0.1311915784,
            "estimated_diameter_max": 0.2933532873
        },
        "feet": {
            "estimated_diameter_min": 692.6917701639,
            "estimated_diameter_max": 1548.9058855411
        }
    },
    "is_potentially_hazardous_asteroid": false,
    "close_approach_data": [
        {
            "close_approach_date": "2009-10-11",
            "close_approach_date_full": "2009-Oct-11 02:01",
            "epoch_date_close_approach": 1255226460000,
            "relative_velocity": {
                "kilometers_per_second": "30.4171108602",
                "kilometers_per_hour": "109501.5990966066",
                "miles_per_hour": "68040.0352831109"
            },
            "miss_distance": {
                "astronomical": "0.4944564863",
                "lunar": "192.3435731707",
                "kilometers": "73969637.158164181",
                "miles": "45962601.2159444578"
            },
            "orbiting_body": "Earth"
        }
    ],
    "orbital_data": {
        "orbit_id": "8",
        "orbit_determination_date": "2017-04-06 08:59:28",
        "first_observation_date": "2009-10-21",
        "last_observation_date": "2009-10-26",
        "data_arc_in_days": 5,
        "observations_used": 37,
        "orbit_uncertainty": "9",
        "minimum_orbit_intersection": ".437902",
        "jupiter_tisserand_invariant": "2.042",
        "epoch_osculation": "2455127.5",
        "eccentricity": ".7016281602631183",
        "semi_major_axis": "3.558848481143734",
        "inclination": "60.53214028107034",
        "ascending_node_longitude": "209.7749336778347",
        "orbital_period": "2452.238317204528",
        "perihelion_distance": "1.061860168663663",
        "perihelion_argument": "104.0267342490794",
        "aphelion_distance": "6.055836793623804",
        "perihelion_time": "2455042.715772658403",
        "mean_anomaly": "12.44671923965749",
        "mean_motion": ".1468046549449518",
        "equinox": "J2000",
        "orbit_class": {
            "orbit_class_type": "AMO",
            "orbit_class_description": "Near-Earth asteroid orbits similar to that of 1221 Amor",
            "orbit_class_range": "1.017 AU < q (perihelion) < 1.3 AU"
        }
    },
    "is_sentry_object": false
}